OBJECT_NAME,OBJECT_ID,EPOCH,MEAN_MOTION,ECCENTRICITY,INCLINATION,RA_OF_ASC_NODE,ARG_OF_PERICENTER,MEAN_ANOMALY,EPHEMERIS_TYPE,CLASSIFICATION_TYPE,NORAD_CAT_ID,ELEMENT_SET_NO,REV_AT_EPOCH,BSTAR,MEAN_MOTION_DOT,MEAN_MOTION_DDOT
ZY-1 02E,2021-131A,2026-02-22T23:13:38.371008,14.35390197,.00021199,98.4514,133.4497,96.6270,263.5157,0,U,50465,999,21803,.55118937E-4,.115E-5,0
XW-3 (CAS-9),2021-131B,2026-02-22T22:11:42.807264,14.41228374,.00052577,98.4973,146.9641,84.8107,275.3682,0,U,50466,999,21865,.11632636E-3,.332E-5,0
ONEWEB-0389,2021-132A,2026-02-22T21:57:17.583840,13.17647948,.00019526,87.9124,28.5642,72.5111,287.6234,0,U,50469,999,20303,.11207168E-3,.56E-6,0
ONEWEB-0390,2021-132B,2026-02-22T21:59:42.664128,13.17650720,.00021354,87.9120,28.5643,85.6156,274.5219,0,U,50470,999,20303,.1988224E-3,.9E-6,0
ONEWEB-0391,2021-132C,2026-02-22T22:02:09.682368,13.17648385,.00024602,87.9121,28.5733,66.7702,293.3688,0,U,50471,999,20303,.12409979E-3,.61E-6,0
ONEWEB-0392,2021-132D,2026-02-22T22:45:53.434368,13.17647316,.00020326,87.9132,28.5258,72.4374,287.6979,0,U,50472,999,20307,-.18514267E-3,-.59E-6,0
ONEWEB-0393,2021-132E,2026-02-22T22:07:12.847008,13.17649662,.00019225,87.9130,28.5548,77.5170,282.6177,0,U,50473,999,20306,.34541748E-4,.26E-6,0
ONEWEB-0394,2021-132F,2026-02-22T14:24:18.550080,13.18685293,.0001813,87.9241,358.1909,75.4301,284.7032,0,U,50474,999,20649,.54005E-4,.34E-6,0
ONEWEB-0395,2021-132G,2026-02-22T22:49:07.817952,13.11417611,.00020933,87.8835,43.7927,85.1664,274.9703,0,U,50475,999,20074,.13236091E-2,.482E-5,0
ONEWEB-0396,2021-132H,2026-02-22T14:14:48.448320,13.18684988,.000185,87.9241,358.2041,75.6364,284.4973,0,U,50476,999,20653,-.58675E-4,-.1E-6,0
ONEWEB-0397,2021-132J,2026-02-22T12:46:54.861024,13.18684729,.000169,87.9241,358.2162,74.2812,285.8507,0,U,50477,999,20650,.19876E-3,.91E-6,0
ONEWEB-0398,2021-132K,2026-02-22T22:02:42.998208,13.11415815,.00022024,87.8841,43.7786,88.8359,271.3021,0,U,50478,999,20063,-.17354923E-2,-.602E-5,0
ONEWEB-0399,2021-132L,2026-02-22T21:43:11.439264,13.11413660,.00018015,87.8837,43.7911,68.7381,291.3939,0,U,50479,999,20062,-.9131448E-3,-.311E-5,0
ONEWEB-0400,2021-132M,2026-02-22T21:22:21.633888,13.18684921,.00020199,87.9242,358.1350,82.3552,277.7810,0,U,50480,999,20654,-.87958428E-4,-.22E-6,0
ONEWEB-0401,2021-132N,2026-02-22T18:47:57.336864,13.18686484,.00016606,87.9241,358.1521,80.0446,280.0874,0,U,50481,999,20653,.15492203E-3,.74E-6,0
ONEWEB-0402,2021-132P,2026-02-22T21:34:13.771200,13.18685183,.00013068,87.9242,358.1212,82.0396,278.0885,0,U,50482,999,20657,-.23739546E-3,-.81E-6,0
ONEWEB-0403,2021-132Q,2026-02-22T20:20:35.844576,13.18684673,.00019056,87.9241,358.1542,76.6583,283.4762,0,U,50483,999,20652,-.4858092E-5,.11E-6,0
ONEWEB-0404,2021-132R,2026-02-22T15:46:45.305184,13.11415924,.00019882,87.8835,43.8486,76.2240,283.9109,0,U,50484,999,20068,.12451311E-2,.454E-5,0
ONEWEB-0405,2021-132S,2026-02-22T06:07:52.183776,13.18684696,.00016125,87.9241,358.2556,74.2615,285.8695,0,U,50485,999,20684,.17861658E-3,.83E-6,0
ONEWEB-0406,2021-132T,2026-02-22T20:27:43.690464,13.18686597,.00020566,87.9241,358.1629,66.6296,293.5052,0,U,50486,999,20655,-.72258792E-4,-.16E-6,0
ONEWEB-0407,2021-132U,2026-02-22T13:01:10.041312,13.18685585,.0001728,87.9242,358.2074,83.9648,276.1681,0,U,50487,999,20645,.22676E-3,.102E-5,0
ONEWEB-0409,2021-132V,2026-02-22T17:34:11.886528,13.11417214,.00020312,87.8844,43.8135,78.9985,281.1371,0,U,50488,999,20058,.14835596E-2,.539E-5,0
ONEWEB-0412,2021-132W,2026-02-22T14:33:48.140352,13.18685618,.0001523,87.9240,358.2083,77.9458,282.1845,0,U,50489,999,20655,.10824E-3,.56E-6,0
ONEWEB-0413,2021-132X,2026-02-22T20:08:43.360800,13.18685196,.00015658,87.9231,358.1682,83.4049,276.7261,0,U,50490,999,20652,.71507011E-4,.41E-6,0
ONEWEB-0414,2021-132Y,2026-02-22T14:19:33.384288,13.18686929,.0001692,87.9241,358.1864,75.2309,284.9011,0,U,50491,999,20652,-.38426E-4,-.2E-7,0
ONEWEB-0417,2021-132Z,2026-02-22T14:31:25.559616,13.18684716,.0001998,87.9232,358.2139,75.0073,285.1280,0,U,50492,999,20650,.34504E-4,.27E-6,0
ONEWEB-0418,2021-132AA,2026-02-22T22:02:31.680672,13.18688030,.00020638,87.9241,358.1407,70.4888,289.6467,0,U,50493,999,20660,-.19239822E-3,-.63E-6,0
ONEWEB-0419,2021-132AB,2026-02-22T06:05:30.244992,13.18684907,.00021576,87.9241,358.2719,79.2898,280.8477,0,U,50494,999,20643,.13783983E-3,.67E-6,0
ONEWEB-0420,2021-132AC,2026-02-22T14:21:55.512288,13.18684673,.0001781,87.9238,358.2166,83.6916,276.4419,0,U,50495,999,20647,-.94591E-4,-.24E-6,0
ONEWEB-0421,2021-132AD,2026-02-22T19:40:12.704736,13.18685116,.00016258,87.9241,358.1642,73.5830,286.5481,0,U,50496,999,20654,.1835593E-5,.14E-6,0
