ZY-1 02E                
1 50465U 21131A   26053.96780522  .00000115  00000+0  55119-4 0  9994
2 50465  98.4514 133.4497 0002119  96.6270 263.5157 14.35390197218032
XW-3 (CAS-9)            
1 50466U 21131B   26053.92480101  .00000332  00000+0  11633-3 0  9994
2 50466  98.4973 146.9641 0005257  84.8107 275.3682 14.41228374218652
ONEWEB-0389             
1 50469U 21132A   26053.91478685  .00000056  00000+0  11207-3 0  9991
2 50469  87.9124  28.5642 0001952  72.5111 287.6234 13.17647948203038
ONEWEB-0390             
1 50470U 21132B   26053.91646602  .00000090  00000+0  19882-3 0  9994
2 50470  87.9120  28.5643 0002135  85.6156 274.5219 13.17650720203035
ONEWEB-0391             
1 50471U 21132C   26053.91816762  .00000061  00000+0  12410-3 0  9999
2 50471  87.9121  28.5733 0002460  66.7702 293.3688 13.17648385203038
ONEWEB-0392             
1 50472U 21132D   26053.94853512 -.00000059  00000+0 -18514-3 0  9997
2 50472  87.9132  28.5258 0002032  72.4374 287.6979 13.17647316203073
ONEWEB-0393             
1 50473U 21132E   26053.92167647  .00000026  00000+0  34542-4 0  9995
2 50473  87.9130  28.5548 0001922  77.5170 282.6177 13.17649662203061
ONEWEB-0394             
1 50474U 21132F   26053.60021470  .00000034  00000+0  54005-4 0  9999
2 50474  87.9241 358.1909 0001813  75.4301 284.7032 13.18685293206494
ONEWEB-0395             
1 50475U 21132G   26053.95078493  .00000482  00000+0  13236-2 0  9991
2 50475  87.8835  43.7927 0002093  85.1664 274.9703 13.11417611200749
ONEWEB-0396             
1 50476U 21132H   26053.59361630 -.00000010  00000+0 -58675-4 0  9997
2 50476  87.9241 358.2041 0001850  75.6364 284.4973 13.18684988206532
ONEWEB-0397             
1 50477U 21132J   26053.53257941  .00000091  00000+0  19876-3 0  9997
2 50477  87.9241 358.2162 0001690  74.2812 285.8507 13.18684729206500
ONEWEB-0398             
1 50478U 21132K   26053.91855322 -.00000602  00000+0 -17355-2 0  9996
2 50478  87.8841  43.7786 0002202  88.8359 271.3021 13.11415815200631
ONEWEB-0399             
1 50479U 21132L   26053.90499351 -.00000311  00000+0 -91314-3 0  9997
2 50479  87.8837  43.7911 0001801  68.7381 291.3939 13.11413660200628
ONEWEB-0400             
1 50480U 21132M   26053.89052817 -.00000022  00000+0 -87958-4 0  9998
2 50480  87.9242 358.1350 0002019  82.3552 277.7810 13.18684921206545
ONEWEB-0401             
1 50481U 21132N   26053.78330251  .00000074  00000+0  15492-3 0  9996
2 50481  87.9241 358.1521 0001660  80.0446 280.0874 13.18686484206535
ONEWEB-0402             
1 50482U 21132P   26053.89877050 -.00000081  00000+0 -23740-3 0  9997
2 50482  87.9242 358.1212 0001306  82.0396 278.0885 13.18685183206575
ONEWEB-0403             
1 50483U 21132Q   26053.84763709  .00000011  00000+0 -48581-5 0  9992
2 50483  87.9241 358.1542 0001905  76.6583 283.4762 13.18684673206525
ONEWEB-0404             
1 50484U 21132R   26053.65746881  .00000454  00000+0  12451-2 0  9998
2 50484  87.8835  43.8486 0001988  76.2240 283.9109 13.11415924200681
ONEWEB-0405             
1 50485U 21132S   26053.25546509  .00000083  00000+0  17862-3 0  9990
2 50485  87.9241 358.2556 0001612  74.2615 285.8695 13.18684696206849
ONEWEB-0406             
1 50486U 21132T   26053.85258901 -.00000016  00000+0 -72259-4 0  9993
2 50486  87.9241 358.1629 0002056  66.6296 293.5052 13.18686597206556
ONEWEB-0407             
1 50487U 21132U   26053.54247733  .00000102  00000+0  22676-3 0  9992
2 50487  87.9242 358.2074 0001728  83.9648 276.1681 13.18685585206451
ONEWEB-0409             
1 50488U 21132V   26053.73208202  .00000539  00000+0  14836-2 0  9994
2 50488  87.8844  43.8135 0002031  78.9985 281.1371 13.11417214200585
ONEWEB-0412             
1 50489U 21132W   26053.60680718  .00000056  00000+0  10824-3 0  9995
2 50489  87.9240 358.2083 0001523  77.9458 282.1845 13.18685618206553
ONEWEB-0413             
1 50490U 21132X   26053.83939075  .00000041  00000+0  71507-4 0  9995
2 50490  87.9231 358.1682 0001565  83.4049 276.7261 13.18685196206522
ONEWEB-0414             
1 50491U 21132Y   26053.59691417 -.00000002  00000+0 -38426-4 0  9996
2 50491  87.9241 358.1864 0001692  75.2309 284.9011 13.18686929206524
ONEWEB-0417             
1 50492U 21132Z   26053.60515694  .00000027  00000+0  34504-4 0  9999
2 50492  87.9232 358.2139 0001998  75.0073 285.1280 13.18684716206507
ONEWEB-0418             
1 50493U 21132AA  26053.91842223 -.00000063  00000+0 -19240-3 0  9996
2 50493  87.9241 358.1407 0002063  70.4888 289.6467 13.18688030206602
ONEWEB-0419             
1 50494U 21132AB  26053.25382228  .00000067  00000+0  13784-3 0  9997
2 50494  87.9241 358.2719 0002157  79.2898 280.8477 13.18684907206436
ONEWEB-0420             
1 50495U 21132AC  26053.59855917 -.00000024  00000+0 -94591-4 0  9996
2 50495  87.9238 358.2166 0001781  83.6916 276.4419 13.18684673206472
ONEWEB-0421             
1 50496U 21132AD  26053.81959149  .00000014  00000+0  18356-5 0  9997
2 50496  87.9241 358.1642 0001625  73.5830 286.5481 13.18685116206547
